start=new Date('2022-04-13T00:00:00.000Z').valueOf();
sats=[{"MEAN_MOTION_DDOT":"0.0000000000000","EPHEMERIS_TYPE":"0","SITE":"AFETR","MEAN_ELEMENT_THEORY":"SGP4","APOAPSIS":"480.288","SEMIMAJOR_AXIS":"6857.534","REV_AT_EPOCH":"365","CLASSIFICATION_TYPE":"U","TIME_SYSTEM":"UTC","CENTER_NAME":"EARTH","ECCENTRICITY":"0.00012960","TLE_LINE1":"1 51724U 22016L   22102.91667824 -.00714575  00000-0 -27301-1 0  9995","DECAY_DATE":null,"PERIAPSIS":"478.511","OBJECT_ID":"2022-016L","FILE":"3398892","OBJECT_TYPE":"PAYLOAD","PERIOD":"94.192","NORAD_CAT_ID":"51724","ELEMENT_SET_NO":"999","REF_FRAME":"TEME","MEAN_MOTION_DOT":"-0.00714575","RA_OF_ASC_NODE":"255.1043","INCLINATION":"53.2172","MEAN_ANOMALY":"310.2121","BSTAR":"-0.02730100000000","COUNTRY_CODE":"US","LAUNCH_DATE":"2022-02-21","OBJECT_NAME":"STARLINK-3529","TLE_LINE2":"2 51724  53.2172 255.1043 0001296  56.8515 310.2121 15.28800347  3651","RCS_SIZE":"LARGE","GP_ID":"201096595","ARG_OF_PERICENTER":"56.8515","MEAN_MOTION":"15.28800347","EPOCH":"2022-04-12T22:00:00.999936"},{"SEMIMAJOR_AXIS":"6858.681","REV_AT_EPOCH":"365","APOAPSIS":"481.517","MEAN_ELEMENT_THEORY":"SGP4","SITE":"AFETR","EPHEMERIS_TYPE":"0","MEAN_MOTION_DDOT":"0.0000000000000","ECCENTRICITY":"0.00014160","CENTER_NAME":"EARTH","TIME_SYSTEM":"UTC","CLASSIFICATION_TYPE":"U","PERIAPSIS":"479.575","TLE_LINE1":"1 51725U 22016M   22102.91667824 -.00722834  00000-0 -27625-1 0  9992","DECAY_DATE":null,"OBJECT_ID":"2022-016M","PERIOD":"94.215","OBJECT_TYPE":"PAYLOAD","FILE":"3398892","RA_OF_ASC_NODE":"255.1036","MEAN_MOTION_DOT":"-0.00722834","REF_FRAME":"TEME","NORAD_CAT_ID":"51725","ELEMENT_SET_NO":"999","COUNTRY_CODE":"US","BSTAR":"-0.02762500000000","MEAN_ANOMALY":"272.0882","INCLINATION":"53.2172","GP_ID":"201096176","RCS_SIZE":"LARGE","TLE_LINE2":"2 51725  53.2172 255.1036 0001416  52.8156 272.0882 15.28416902  3654","OBJECT_NAME":"STARLINK-3522","LAUNCH_DATE":"2022-02-21","EPOCH":"2022-04-12T22:00:00.999936","MEAN_MOTION":"15.28416902","ARG_OF_PERICENTER":"52.8156"},{"NORAD_CAT_ID":"51726","ELEMENT_SET_NO":"999","REF_FRAME":"TEME","MEAN_MOTION_DOT":"-0.00714707","RA_OF_ASC_NODE":"250.8100","MEAN_ANOMALY":"352.2318","INCLINATION":"53.2171","BSTAR":"-0.00845760000000","COUNTRY_CODE":"US","OBJECT_NAME":"STARLINK-3527","LAUNCH_DATE":"2022-02-21","TLE_LINE2":"2 51726  53.2171 250.8100 0001156  54.3877 352.2318 15.62918118  3699","RCS_SIZE":"LARGE","GP_ID":"201096310","ARG_OF_PERICENTER":"54.3877","MEAN_MOTION":"15.62918118","EPOCH":"2022-04-12T22:00:00.999936","MEAN_MOTION_DDOT":"0.0000000000000","SITE":"AFETR","MEAN_ELEMENT_THEORY":"SGP4","EPHEMERIS_TYPE":"0","SEMIMAJOR_AXIS":"6757.370","REV_AT_EPOCH":"369","APOAPSIS":"380.016","CLASSIFICATION_TYPE":"U","TIME_SYSTEM":"UTC","ECCENTRICITY":"0.00011560","CENTER_NAME":"EARTH","DECAY_DATE":null,"TLE_LINE1":"1 51726U 22016N   22102.91667824 -.00714707  00000-0 -84576-2 0  9992","PERIAPSIS":"378.454","OBJECT_ID":"2022-016N","FILE":"3398892","OBJECT_TYPE":"PAYLOAD","PERIOD":"92.135"},{"GP_ID":"201096405","RCS_SIZE":"LARGE","TLE_LINE2":"2 51727  53.2172 255.1041 0001407  49.9980 303.0507 15.28672598  3658","OBJECT_NAME":"STARLINK-3532","LAUNCH_DATE":"2022-02-21","EPOCH":"2022-04-12T22:00:00.999936","MEAN_MOTION":"15.28672598","ARG_OF_PERICENTER":"49.9980","RA_OF_ASC_NODE":"255.1041","MEAN_MOTION_DOT":"-0.00722948","REF_FRAME":"TEME","NORAD_CAT_ID":"51727","ELEMENT_SET_NO":"999","COUNTRY_CODE":"US","BSTAR":"-0.02741300000000","INCLINATION":"53.2172","MEAN_ANOMALY":"303.0507","OBJECT_ID":"2022-016P","TLE_LINE1":"1 51727U 22016P   22102.91667824 -.00722948  00000-0 -27413-1 0  9995","DECAY_DATE":null,"PERIAPSIS":"478.817","PERIOD":"94.199","OBJECT_TYPE":"PAYLOAD","FILE":"3398892","APOAPSIS":"480.746","REV_AT_EPOCH":"365","SEMIMAJOR_AXIS":"6857.916","SITE":"AFETR","EPHEMERIS_TYPE":"0","MEAN_ELEMENT_THEORY":"SGP4","MEAN_MOTION_DDOT":"0.0000000000000","CENTER_NAME":"EARTH","ECCENTRICITY":"0.00014070","TIME_SYSTEM":"UTC","CLASSIFICATION_TYPE":"U"},{"MEAN_MOTION_DDOT":"0.0000000000000","APOAPSIS":"379.281","SEMIMAJOR_AXIS":"6756.633","REV_AT_EPOCH":"369","EPHEMERIS_TYPE":"0","SITE":"AFETR","MEAN_ELEMENT_THEORY":"SGP4","CLASSIFICATION_TYPE":"U","CENTER_NAME":"EARTH","ECCENTRICITY":"0.00011580","TIME_SYSTEM":"UTC","TLE_LINE1":"1 51728U 22016Q   22102.91667824 -.00714800  00000-0 -83739-2 0  9998","PERIAPSIS":"377.716","DECAY_DATE":null,"OBJECT_ID":"2022-016Q","FILE":"3398892","PERIOD":"92.120","OBJECT_TYPE":"PAYLOAD","REF_FRAME":"TEME","NORAD_CAT_ID":"51728","ELEMENT_SET_NO":"999","RA_OF_ASC_NODE":"250.8077","MEAN_MOTION_DOT":"-0.00714800","BSTAR":"-0.00837390000000","INCLINATION":"53.2171","MEAN_ANOMALY":"358.4266","COUNTRY_CODE":"US","TLE_LINE2":"2 51728  53.2171 250.8077 0001158  55.5837 358.4266 15.63173727  3695","OBJECT_NAME":"STARLINK-3448","LAUNCH_DATE":"2022-02-21","GP_ID":"201096596","RCS_SIZE":"LARGE","MEAN_MOTION":"15.63173727","ARG_OF_PERICENTER":"55.5837","EPOCH":"2022-04-12T22:00:00.999936"},{"ARG_OF_PERICENTER":"49.2706","MEAN_MOTION":"15.62790328","EPOCH":"2022-04-12T22:00:00.999936","LAUNCH_DATE":"2022-02-21","OBJECT_NAME":"STARLINK-3523","TLE_LINE2":"2 51729  53.2171 250.8104 0001242  49.2706 353.5960 15.62790328  3694","RCS_SIZE":"LARGE","GP_ID":"201096500","MEAN_ANOMALY":"353.5960","INCLINATION":"53.2171","BSTAR":"-0.00850090000000","COUNTRY_CODE":"US","NORAD_CAT_ID":"51729","ELEMENT_SET_NO":"999","REF_FRAME":"TEME","MEAN_MOTION_DOT":"-0.00714770","RA_OF_ASC_NODE":"250.8104","FILE":"3398892","OBJECT_TYPE":"PAYLOAD","PERIOD":"92.143","TLE_LINE1":"1 51729U 22016R   22102.91667824 -.00714770  00000-0 -85009-2 0  9997","DECAY_DATE":null,"PERIAPSIS":"378.764","OBJECT_ID":"2022-016R","CLASSIFICATION_TYPE":"U","TIME_SYSTEM":"UTC","ECCENTRICITY":"0.00012420","CENTER_NAME":"EARTH","MEAN_MOTION_DDOT":"0.0000000000000","MEAN_ELEMENT_THEORY":"SGP4","SITE":"AFETR","EPHEMERIS_TYPE":"0","REV_AT_EPOCH":"369","SEMIMAJOR_AXIS":"6757.738","APOAPSIS":"380.443"},{"LAUNCH_DATE":"2022-02-21","OBJECT_NAME":"STARLINK-3530","TLE_LINE2":"2 51730  53.2171 250.8052 0001195  52.3387   8.9088 15.63429324  3693","RCS_SIZE":"LARGE","GP_ID":"201095985","ARG_OF_PERICENTER":"52.3387","MEAN_MOTION":"15.63429324","EPOCH":"2022-04-12T22:00:00.999936","NORAD_CAT_ID":"51730","ELEMENT_SET_NO":"999","REF_FRAME":"TEME","MEAN_MOTION_DOT":"-0.00714786","RA_OF_ASC_NODE":"250.8052","MEAN_ANOMALY":"8.9088","INCLINATION":"53.2171","BSTAR":"-0.00828940000000","COUNTRY_CODE":"US","TLE_LINE1":"1 51730U 22016S   22102.91667824 -.00714786  00000-0 -82894-2 0  9995","DECAY_DATE":null,"PERIAPSIS":"376.954","OBJECT_ID":"2022-016S","FILE":"3398892","OBJECT_TYPE":"PAYLOAD","PERIOD":"92.105","MEAN_MOTION_DDOT":"0.0000000000000","EPHEMERIS_TYPE":"0","SITE":"AFETR","MEAN_ELEMENT_THEORY":"SGP4","SEMIMAJOR_AXIS":"6755.897","REV_AT_EPOCH":"369","APOAPSIS":"378.569","CLASSIFICATION_TYPE":"U","TIME_SYSTEM":"UTC","ECCENTRICITY":"0.00011950","CENTER_NAME":"EARTH"},{"INCLINATION":"53.2171","MEAN_ANOMALY":"355.0203","BSTAR":"-0.00841610000000","COUNTRY_CODE":"US","ELEMENT_SET_NO":"999","NORAD_CAT_ID":"51731","REF_FRAME":"TEME","MEAN_MOTION_DOT":"-0.00714788","RA_OF_ASC_NODE":"250.8088","ARG_OF_PERICENTER":"55.3139","MEAN_MOTION":"15.63045933","EPOCH":"2022-04-12T22:00:00.999936","OBJECT_NAME":"STARLINK-3514","LAUNCH_DATE":"2022-02-21","TLE_LINE2":"2 51731  53.2171 250.8088 0001159  55.3139 355.0203 15.63045933  3696","RCS_SIZE":"MEDIUM","GP_ID":"201096081","CLASSIFICATION_TYPE":"U","TIME_SYSTEM":"UTC","CENTER_NAME":"EARTH","ECCENTRICITY":"0.00011590","MEAN_MOTION_DDOT":"0.0000000000000","SITE":"AFETR","MEAN_ELEMENT_THEORY":"SGP4","EPHEMERIS_TYPE":"0","APOAPSIS":"379.650","SEMIMAJOR_AXIS":"6757.001","REV_AT_EPOCH":"369","FILE":"3398892","OBJECT_TYPE":"PAYLOAD","PERIOD":"92.128","TLE_LINE1":"1 51731U 22016T   22102.91667824 -.00714788  00000-0 -84161-2 0  9997","PERIAPSIS":"378.083","DECAY_DATE":null,"OBJECT_ID":"2022-016T"},{"COUNTRY_CODE":"US","MEAN_ANOMALY":"12.0693","INCLINATION":"53.2171","BSTAR":"-0.00824850000000","MEAN_MOTION_DOT":"-0.00714865","RA_OF_ASC_NODE":"250.8037","NORAD_CAT_ID":"51732","ELEMENT_SET_NO":"999","REF_FRAME":"TEME","EPOCH":"2022-04-12T22:00:00.999936","ARG_OF_PERICENTER":"52.7393","MEAN_MOTION":"15.63557132","RCS_SIZE":"LARGE","GP_ID":"201096652","OBJECT_NAME":"STARLINK-3518","LAUNCH_DATE":"2022-02-21","TLE_LINE2":"2 51732  53.2171 250.8037 0001207  52.7393  12.0693 15.63557132  3690","TIME_SYSTEM":"UTC","ECCENTRICITY":"0.00012070","CENTER_NAME":"EARTH","CLASSIFICATION_TYPE":"U","SITE":"AFETR","EPHEMERIS_TYPE":"0","MEAN_ELEMENT_THEORY":"SGP4","SEMIMAJOR_AXIS":"6755.529","REV_AT_EPOCH":"369","APOAPSIS":"378.209","MEAN_MOTION_DDOT":"0.0000000000000","OBJECT_TYPE":"PAYLOAD","PERIOD":"92.098","FILE":"3398892","OBJECT_ID":"2022-016U","TLE_LINE1":"1 51732U 22016U   22102.91667824 -.00714865  00000-0 -82485-2 0  9991","DECAY_DATE":null,"PERIAPSIS":"376.578"},{"ELEMENT_SET_NO":"999","NORAD_CAT_ID":"51733","REF_FRAME":"TEME","MEAN_MOTION_DOT":"-0.00714788","RA_OF_ASC_NODE":"250.8063","MEAN_ANOMALY":"13.6416","INCLINATION":"53.2171","BSTAR":"-0.00833110000000","COUNTRY_CODE":"US","OBJECT_NAME":"STARLINK-3525","LAUNCH_DATE":"2022-02-21","TLE_LINE2":"2 51733  53.2171 250.8063 0001341  44.0065  13.6416 15.63301511  3697","RCS_SIZE":"MEDIUM","GP_ID":"201096177","ARG_OF_PERICENTER":"44.0065","MEAN_MOTION":"15.63301511","EPOCH":"2022-04-12T22:00:00.999936","MEAN_MOTION_DDOT":"0.0000000000000","SITE":"AFETR","MEAN_ELEMENT_THEORY":"SGP4","EPHEMERIS_TYPE":"0","REV_AT_EPOCH":"369","SEMIMAJOR_AXIS":"6756.265","APOAPSIS":"379.036","CLASSIFICATION_TYPE":"U","TIME_SYSTEM":"UTC","ECCENTRICITY":"0.00013410","CENTER_NAME":"EARTH","TLE_LINE1":"1 51733U 22016V   22102.91667824 -.00714788  00000-0 -83311-2 0  9995","OBJECT_ID":"2022-016V","DECAY_DATE":null,"PERIAPSIS":"377.224","FILE":"3398892","OBJECT_TYPE":"PAYLOAD","PERIOD":"92.113"}];
